start=new Date('2022-10-04T00:00:00.000Z').valueOf();
sats=[{"REF_FRAME":"TEME","RA_OF_ASC_NODE":"86.3603","APOAPSIS":"548.137","FILE":"3590585","ELEMENT_SET_NO":"999","REV_AT_EPOCH":"10856","RCS_SIZE":"LARGE","OBJECT_NAME":"STARLINK-1808","GP_ID":"214116463","MEAN_MOTION":"15.06404746","TIME_SYSTEM":"UTC","SEMIMAJOR_AXIS":"6925.334","PERIAPSIS":"546.261","DECAY_DATE":null,"OBJECT_ID":"2020-073AP","TLE_LINE2":"2 46707  53.0546  86.3603 0001354  86.5845 273.5299 15.06404746108568","NORAD_CAT_ID":"46707","EPOCH":"2022-10-03T17:38:10.187232","SITE":"AFETR","PERIOD":"95.592","TLE_LINE1":"1 46707U 20073AP  22276.73484013 -.00000700  00000-0 -28116-4 0  9996","MEAN_ELEMENT_THEORY":"SGP4","OBJECT_TYPE":"PAYLOAD","EPHEMERIS_TYPE":"0","CLASSIFICATION_TYPE":"U","ARG_OF_PERICENTER":"86.5845","BSTAR":"-0.00002811600000","ECCENTRICITY":"0.00013540","LAUNCH_DATE":"2020-10-18","MEAN_MOTION_DOT":"-0.00000700","COUNTRY_CODE":"US","MEAN_MOTION_DDOT":"0.0000000000000","MEAN_ANOMALY":"273.5299","INCLINATION":"53.0546","CENTER_NAME":"EARTH"},{"TLE_LINE2":"2 46709  53.0539 121.1429 0001152  93.0262 267.0858 15.06407095108556","NORAD_CAT_ID":"46709","EPOCH":"2022-10-03T19:27:40.158144","DECAY_DATE":null,"OBJECT_ID":"2020-073AR","OBJECT_TYPE":"PAYLOAD","MEAN_ELEMENT_THEORY":"SGP4","EPHEMERIS_TYPE":"0","PERIOD":"95.592","SITE":"AFETR","TLE_LINE1":"1 46709U 20073AR  22276.81088146  .00006355  00000-0  44507-3 0  9995","FILE":"3590488","APOAPSIS":"547.990","RA_OF_ASC_NODE":"121.1429","REV_AT_EPOCH":"10855","ELEMENT_SET_NO":"999","REF_FRAME":"TEME","TIME_SYSTEM":"UTC","PERIAPSIS":"546.394","SEMIMAJOR_AXIS":"6925.327","OBJECT_NAME":"STARLINK-1810","GP_ID":"214093942","RCS_SIZE":"LARGE","MEAN_MOTION":"15.06407095","MEAN_MOTION_DDOT":"0.0000000000000","MEAN_ANOMALY":"267.0858","CENTER_NAME":"EARTH","INCLINATION":"53.0539","ARG_OF_PERICENTER":"93.0262","BSTAR":"0.00044507000000","CLASSIFICATION_TYPE":"U","LAUNCH_DATE":"2020-10-18","ECCENTRICITY":"0.00011520","MEAN_MOTION_DOT":"0.00006355","COUNTRY_CODE":"US"},{"PERIAPSIS":"546.260","SEMIMAJOR_AXIS":"6925.321","TIME_SYSTEM":"UTC","MEAN_MOTION":"15.06409006","OBJECT_NAME":"STARLINK-1811","GP_ID":"214094443","RCS_SIZE":"LARGE","REV_AT_EPOCH":"10856","ELEMENT_SET_NO":"999","FILE":"3590488","RA_OF_ASC_NODE":"120.9339","APOAPSIS":"548.112","REF_FRAME":"TEME","EPHEMERIS_TYPE":"0","MEAN_ELEMENT_THEORY":"SGP4","OBJECT_TYPE":"PAYLOAD","TLE_LINE1":"1 46710U 20073AS  22276.82929556  .00000871  00000-0  77317-4 0  9990","PERIOD":"95.592","SITE":"AFETR","NORAD_CAT_ID":"46710","EPOCH":"2022-10-03T19:54:11.136384","TLE_LINE2":"2 46710  53.0541 120.9339 0001337  89.1706 270.9436 15.06409006108562","OBJECT_ID":"2020-073AS","DECAY_DATE":null,"COUNTRY_CODE":"US","LAUNCH_DATE":"2020-10-18","MEAN_MOTION_DOT":"0.00000871","ECCENTRICITY":"0.00013370","BSTAR":"0.00007731700000","ARG_OF_PERICENTER":"89.1706","CLASSIFICATION_TYPE":"U","CENTER_NAME":"EARTH","INCLINATION":"53.0541","MEAN_ANOMALY":"270.9436","MEAN_MOTION_DDOT":"0.0000000000000"},{"SEMIMAJOR_AXIS":"6925.320","PERIAPSIS":"546.255","TIME_SYSTEM":"UTC","MEAN_MOTION":"15.06409369","RCS_SIZE":"LARGE","OBJECT_NAME":"STARLINK-1813","GP_ID":"214093937","ELEMENT_SET_NO":"999","REV_AT_EPOCH":"10875","RA_OF_ASC_NODE":"106.0517","APOAPSIS":"548.115","FILE":"3590488","REF_FRAME":"TEME","EPHEMERIS_TYPE":"0","MEAN_ELEMENT_THEORY":"SGP4","OBJECT_TYPE":"PAYLOAD","TLE_LINE1":"1 46711U 20073AT  22276.80303141  .00003848  00000-0  27704-3 0  9996","SITE":"AFETR","PERIOD":"95.592","NORAD_CAT_ID":"46711","EPOCH":"2022-10-03T19:16:21.913824","TLE_LINE2":"2 46711  53.0523 106.0517 0001343  98.0832 262.0309 15.06409369108756","OBJECT_ID":"2020-073AT","DECAY_DATE":null,"COUNTRY_CODE":"US","LAUNCH_DATE":"2020-10-18","ECCENTRICITY":"0.00013430","MEAN_MOTION_DOT":"0.00003848","BSTAR":"0.00027704000000","ARG_OF_PERICENTER":"98.0832","CLASSIFICATION_TYPE":"U","CENTER_NAME":"EARTH","INCLINATION":"53.0523","MEAN_ANOMALY":"262.0309","MEAN_MOTION_DDOT":"0.0000000000000"},{"COUNTRY_CODE":"US","ECCENTRICITY":"0.00011950","LAUNCH_DATE":"2020-10-18","MEAN_MOTION_DOT":"0.00002294","CLASSIFICATION_TYPE":"U","BSTAR":"0.00017285000000","ARG_OF_PERICENTER":"98.1377","INCLINATION":"53.0547","CENTER_NAME":"EARTH","MEAN_ANOMALY":"261.9748","MEAN_MOTION_DDOT":"0.0000000000000","MEAN_MOTION":"15.06402612","GP_ID":"214116962","OBJECT_NAME":"STARLINK-1814","RCS_SIZE":"LARGE","PERIAPSIS":"546.378","SEMIMAJOR_AXIS":"6925.341","TIME_SYSTEM":"UTC","REF_FRAME":"TEME","REV_AT_EPOCH":"10829","ELEMENT_SET_NO":"999","FILE":"3590585","APOAPSIS":"548.033","RA_OF_ASC_NODE":"105.9618","TLE_LINE1":"1 46712U 20073AU  22276.84728205  .00002294  00000-0  17285-3 0  9990","PERIOD":"95.592","SITE":"AFETR","EPHEMERIS_TYPE":"0","MEAN_ELEMENT_THEORY":"SGP4","OBJECT_TYPE":"PAYLOAD","OBJECT_ID":"2020-073AU","DECAY_DATE":null,"NORAD_CAT_ID":"46712","EPOCH":"2022-10-03T20:20:05.169120","TLE_LINE2":"2 46712  53.0547 105.9618 0001195  98.1377 261.9748 15.06402612108291"},{"BSTAR":"0.00173690000000","ARG_OF_PERICENTER":"77.9887","CLASSIFICATION_TYPE":"U","COUNTRY_CODE":"US","ECCENTRICITY":"0.00021190","LAUNCH_DATE":"2020-10-18","MEAN_MOTION_DOT":"0.00025607","MEAN_ANOMALY":"282.1340","MEAN_MOTION_DDOT":"0.0000000000000","CENTER_NAME":"EARTH","INCLINATION":"53.0560","REV_AT_EPOCH":"10829","ELEMENT_SET_NO":"999","FILE":"3590585","APOAPSIS":"549.022","RA_OF_ASC_NODE":"105.8408","REF_FRAME":"TEME","PERIAPSIS":"546.087","SEMIMAJOR_AXIS":"6925.690","TIME_SYSTEM":"UTC","MEAN_MOTION":"15.06288717","OBJECT_NAME":"STARLINK-1815","GP_ID":"214115719","RCS_SIZE":"LARGE","NORAD_CAT_ID":"46713","EPOCH":"2022-10-03T20:18:44.640000","TLE_LINE2":"2 46713  53.0560 105.8408 0002119  77.9887 282.1340 15.06288717108292","OBJECT_ID":"2020-073AV","DECAY_DATE":null,"EPHEMERIS_TYPE":"0","OBJECT_TYPE":"PAYLOAD","MEAN_ELEMENT_THEORY":"SGP4","TLE_LINE1":"1 46713U 20073AV  22276.84635000  .00025607  00000-0  17369-2 0  9996","PERIOD":"95.599","SITE":"AFETR"},{"TLE_LINE1":"1 46714U 20073AW  22276.83621185  .00001665  00000-0  13064-3 0  9992","PERIOD":"95.592","SITE":"AFETR","EPHEMERIS_TYPE":"0","MEAN_ELEMENT_THEORY":"SGP4","OBJECT_TYPE":"PAYLOAD","OBJECT_ID":"2020-073AW","DECAY_DATE":null,"NORAD_CAT_ID":"46714","EPOCH":"2022-10-03T20:04:08.703840","TLE_LINE2":"2 46714  53.0541 105.8891 0001081  72.6462 287.4645 15.06399477108298","MEAN_MOTION":"15.06399477","GP_ID":"214116469","OBJECT_NAME":"STARLINK-1816","RCS_SIZE":"LARGE","PERIAPSIS":"546.467","SEMIMAJOR_AXIS":"6925.350","TIME_SYSTEM":"UTC","REF_FRAME":"TEME","REV_AT_EPOCH":"10829","ELEMENT_SET_NO":"999","FILE":"3590585","RA_OF_ASC_NODE":"105.8891","APOAPSIS":"547.964","INCLINATION":"53.0541","CENTER_NAME":"EARTH","MEAN_ANOMALY":"287.4645","MEAN_MOTION_DDOT":"0.0000000000000","COUNTRY_CODE":"US","LAUNCH_DATE":"2020-10-18","ECCENTRICITY":"0.00010810","MEAN_MOTION_DOT":"0.00001665","CLASSIFICATION_TYPE":"U","BSTAR":"0.00013064000000","ARG_OF_PERICENTER":"72.6462"},{"OBJECT_TYPE":"PAYLOAD","MEAN_ELEMENT_THEORY":"SGP4","EPHEMERIS_TYPE":"0","SITE":"AFETR","PERIOD":"95.591","TLE_LINE1":"1 46715U 20073AX  22276.83252180  .00002653  00000-0  19687-3 0  9993","TLE_LINE2":"2 46715  53.0532 105.9220 0001448  85.9694 274.1460 15.06414238108771","NORAD_CAT_ID":"46715","EPOCH":"2022-10-03T19:58:49.883520","DECAY_DATE":null,"OBJECT_ID":"2020-073AX","TIME_SYSTEM":"UTC","SEMIMAJOR_AXIS":"6925.305","PERIAPSIS":"546.167","RCS_SIZE":"LARGE","GP_ID":"214093944","OBJECT_NAME":"STARLINK-1817","MEAN_MOTION":"15.06414238","RA_OF_ASC_NODE":"105.9220","APOAPSIS":"548.173","FILE":"3590488","ELEMENT_SET_NO":"999","REV_AT_EPOCH":"10877","REF_FRAME":"TEME","CENTER_NAME":"EARTH","INCLINATION":"53.0532","MEAN_MOTION_DDOT":"0.0000000000000","MEAN_ANOMALY":"274.1460","LAUNCH_DATE":"2020-10-18","MEAN_MOTION_DOT":"0.00002653","ECCENTRICITY":"0.00014480","COUNTRY_CODE":"US","ARG_OF_PERICENTER":"85.9694","BSTAR":"0.00019687000000","CLASSIFICATION_TYPE":"U"},{"REF_FRAME":"TEME","ELEMENT_SET_NO":"999","REV_AT_EPOCH":"10852","RA_OF_ASC_NODE":"122.0275","APOAPSIS":"548.234","FILE":"3590471","MEAN_MOTION":"15.06405572","RCS_SIZE":"LARGE","GP_ID":"214094450","OBJECT_NAME":"STARLINK-1818","SEMIMAJOR_AXIS":"6925.331","PERIAPSIS":"546.159","TIME_SYSTEM":"UTC","OBJECT_ID":"2020-073AY","DECAY_DATE":null,"NORAD_CAT_ID":"46716","EPOCH":"2022-10-03T13:58:33.779424","TLE_LINE2":"2 46716  53.0558 122.0275 0001498  94.4236 265.6925 15.06405572108527","TLE_LINE1":"1 46716U 20073AY  22276.58233541  .00000368  00000-0  43617-4 0  9998","SITE":"AFETR","PERIOD":"95.592","EPHEMERIS_TYPE":"0","OBJECT_TYPE":"PAYLOAD","MEAN_ELEMENT_THEORY":"SGP4","CLASSIFICATION_TYPE":"U","BSTAR":"0.00004361700000","ARG_OF_PERICENTER":"94.4236","COUNTRY_CODE":"US","MEAN_MOTION_DOT":"0.00000368","LAUNCH_DATE":"2020-10-18","ECCENTRICITY":"0.00014980","MEAN_ANOMALY":"265.6925","MEAN_MOTION_DDOT":"0.0000000000000","INCLINATION":"53.0558","CENTER_NAME":"EARTH"},{"INCLINATION":"53.0529","CENTER_NAME":"EARTH","MEAN_ANOMALY":"262.0679","MEAN_MOTION_DDOT":"0.0000000000000","COUNTRY_CODE":"US","MEAN_MOTION_DOT":"0.00002979","LAUNCH_DATE":"2020-10-18","ECCENTRICITY":"0.00012770","CLASSIFICATION_TYPE":"U","BSTAR":"0.00021873000000","ARG_OF_PERICENTER":"98.0455","TLE_LINE1":"1 46717U 20073AZ  22276.85094986  .00002979  00000-0  21873-3 0  9996","SITE":"AFETR","PERIOD":"95.592","EPHEMERIS_TYPE":"0","MEAN_ELEMENT_THEORY":"SGP4","OBJECT_TYPE":"PAYLOAD","OBJECT_ID":"2020-073AZ","DECAY_DATE":null,"NORAD_CAT_ID":"46717","EPOCH":"2022-10-03T20:25:22.067904","TLE_LINE2":"2 46717  53.0529 105.8367 0001277  98.0455 262.0679 15.06406955108292","MEAN_MOTION":"15.06406955","RCS_SIZE":"LARGE","GP_ID":"214117471","OBJECT_NAME":"STARLINK-1820","SEMIMAJOR_AXIS":"6925.327","PERIAPSIS":"546.308","TIME_SYSTEM":"UTC","REF_FRAME":"TEME","ELEMENT_SET_NO":"999","REV_AT_EPOCH":"10829","APOAPSIS":"548.077","RA_OF_ASC_NODE":"105.8367","FILE":"3590585"}];
